ORBCOMM FM05            
1 25117U 97084F   25328.68679672  .00001848  00000+0  54718-3 0  9993
2 25117  45.0153 317.1009 0004425 298.7162  61.3245 14.46608134463840
ORBCOMM FM06            
1 25118U 97084G   25328.69529236  .00002143  00000+0  62593-3 0  9994
2 25118  45.0143 316.6079 0003369 296.5830 233.5534 14.46765257464761
ORBCOMM FM07            
1 25119U 97084H   25328.67516372  .00002003  00000+0  58751-3 0  9996
2 25119  45.0140 317.4569 0005278 297.7271  62.3045 14.46777458464755
ORBCOMM FM03            
1 25158U 98007B   25328.63189176  .00001290  00000+0  49350-3 0  9991
2 25158 107.9649 105.2714 0045429 325.2664  34.5512 14.34951464447052
ORBCOMM FM04            
1 25159U 98007C   25328.37959433  .00001373  00000+0  52080-3 0  9990
2 25159 107.9640 108.0822 0041368 322.7552  37.0722 14.35196680447201
ORBCOMM FM17            
1 25413U 98046A   25328.42436918  .00000927  00000+0  36816-3 0  9993
2 25413  44.9938 221.1739 0003505 314.8967  45.1595 14.35482232426195
ORBCOMM FM18            
1 25414U 98046B   25328.74791841  .00001301  00000+0  46262-3 0  9991
2 25414  44.9912 132.6824 0003846  20.8590 339.2415 14.39069999427377
ORBCOMM FM19            
1 25415U 98046C   25328.51116250  .00001344  00000+0  47833-3 0  9994
2 25415  44.9920 136.0528 0002610  16.0702   3.6487 14.38890240427298
