<?xml version="1.0" encoding="UTF-8"?>
<ndm xmlns:xsi="http://www.w3.org/2001/XMLSchema-instance" xsi:noNamespaceSchemaLocation="https://sanaregistry.org/r/ndmxml_unqualified/ndmxml-2.0.0-master-2.0.xsd">
<omm id="CCSDS_OMM_VERS" version="2.0">
<header><CREATION_DATE/><ORIGINATOR/></header><body><segment><metadata><OBJECT_NAME>ORBCOMM FM05</OBJECT_NAME><OBJECT_ID>1997-084F</OBJECT_ID><CENTER_NAME>EARTH</CENTER_NAME><REF_FRAME>TEME</REF_FRAME><TIME_SYSTEM>UTC</TIME_SYSTEM><MEAN_ELEMENT_THEORY>SGP4</MEAN_ELEMENT_THEORY></metadata><data><meanElements><EPOCH>2025-11-24T16:28:59.236608</EPOCH><MEAN_MOTION>14.46608134</MEAN_MOTION><ECCENTRICITY>.0004425</ECCENTRICITY><INCLINATION>45.0153</INCLINATION><RA_OF_ASC_NODE>317.1009</RA_OF_ASC_NODE><ARG_OF_PERICENTER>298.7162</ARG_OF_PERICENTER><MEAN_ANOMALY>61.3245</MEAN_ANOMALY></meanElements><tleParameters><EPHEMERIS_TYPE>0</EPHEMERIS_TYPE><CLASSIFICATION_TYPE>U</CLASSIFICATION_TYPE><NORAD_CAT_ID>25117</NORAD_CAT_ID><ELEMENT_SET_NO>999</ELEMENT_SET_NO><REV_AT_EPOCH>46384</REV_AT_EPOCH><BSTAR>.54718E-3</BSTAR><MEAN_MOTION_DOT>.1848E-4</MEAN_MOTION_DOT><MEAN_MOTION_DDOT>0</MEAN_MOTION_DDOT></tleParameters></data></segment></body></omm>
<omm id="CCSDS_OMM_VERS" version="2.0">
<header><CREATION_DATE/><ORIGINATOR/></header><body><segment><metadata><OBJECT_NAME>ORBCOMM FM06</OBJECT_NAME><OBJECT_ID>1997-084G</OBJECT_ID><CENTER_NAME>EARTH</CENTER_NAME><REF_FRAME>TEME</REF_FRAME><TIME_SYSTEM>UTC</TIME_SYSTEM><MEAN_ELEMENT_THEORY>SGP4</MEAN_ELEMENT_THEORY></metadata><data><meanElements><EPOCH>2025-11-24T16:41:13.259904</EPOCH><MEAN_MOTION>14.46765257</MEAN_MOTION><ECCENTRICITY>.0003369</ECCENTRICITY><INCLINATION>45.0143</INCLINATION><RA_OF_ASC_NODE>316.6079</RA_OF_ASC_NODE><ARG_OF_PERICENTER>296.5830</ARG_OF_PERICENTER><MEAN_ANOMALY>233.5534</MEAN_ANOMALY></meanElements><tleParameters><EPHEMERIS_TYPE>0</EPHEMERIS_TYPE><CLASSIFICATION_TYPE>U</CLASSIFICATION_TYPE><NORAD_CAT_ID>25118</NORAD_CAT_ID><ELEMENT_SET_NO>999</ELEMENT_SET_NO><REV_AT_EPOCH>46476</REV_AT_EPOCH><BSTAR>.62593E-3</BSTAR><MEAN_MOTION_DOT>.2143E-4</MEAN_MOTION_DOT><MEAN_MOTION_DDOT>0</MEAN_MOTION_DDOT></tleParameters></data></segment></body></omm>
<omm id="CCSDS_OMM_VERS" version="2.0">
<header><CREATION_DATE/><ORIGINATOR/></header><body><segment><metadata><OBJECT_NAME>ORBCOMM FM07</OBJECT_NAME><OBJECT_ID>1997-084H</OBJECT_ID><CENTER_NAME>EARTH</CENTER_NAME><REF_FRAME>TEME</REF_FRAME><TIME_SYSTEM>UTC</TIME_SYSTEM><MEAN_ELEMENT_THEORY>SGP4</MEAN_ELEMENT_THEORY></metadata><data><meanElements><EPOCH>2025-11-24T16:12:14.145408</EPOCH><MEAN_MOTION>14.46777458</MEAN_MOTION><ECCENTRICITY>.0005278</ECCENTRICITY><INCLINATION>45.0140</INCLINATION><RA_OF_ASC_NODE>317.4569</RA_OF_ASC_NODE><ARG_OF_PERICENTER>297.7271</ARG_OF_PERICENTER><MEAN_ANOMALY>62.3045</MEAN_ANOMALY></meanElements><tleParameters><EPHEMERIS_TYPE>0</EPHEMERIS_TYPE><CLASSIFICATION_TYPE>U</CLASSIFICATION_TYPE><NORAD_CAT_ID>25119</NORAD_CAT_ID><ELEMENT_SET_NO>999</ELEMENT_SET_NO><REV_AT_EPOCH>46475</REV_AT_EPOCH><BSTAR>.58751E-3</BSTAR><MEAN_MOTION_DOT>.2003E-4</MEAN_MOTION_DOT><MEAN_MOTION_DDOT>0</MEAN_MOTION_DDOT></tleParameters></data></segment></body></omm>
<omm id="CCSDS_OMM_VERS" version="2.0">
<header><CREATION_DATE/><ORIGINATOR/></header><body><segment><metadata><OBJECT_NAME>ORBCOMM FM03</OBJECT_NAME><OBJECT_ID>1998-007B</OBJECT_ID><CENTER_NAME>EARTH</CENTER_NAME><REF_FRAME>TEME</REF_FRAME><TIME_SYSTEM>UTC</TIME_SYSTEM><MEAN_ELEMENT_THEORY>SGP4</MEAN_ELEMENT_THEORY></metadata><data><meanElements><EPOCH>2025-11-24T15:09:55.448064</EPOCH><MEAN_MOTION>14.34951464</MEAN_MOTION><ECCENTRICITY>.0045429</ECCENTRICITY><INCLINATION>107.9649</INCLINATION><RA_OF_ASC_NODE>105.2714</RA_OF_ASC_NODE><ARG_OF_PERICENTER>325.2664</ARG_OF_PERICENTER><MEAN_ANOMALY>34.5512</MEAN_ANOMALY></meanElements><tleParameters><EPHEMERIS_TYPE>0</EPHEMERIS_TYPE><CLASSIFICATION_TYPE>U</CLASSIFICATION_TYPE><NORAD_CAT_ID>25158</NORAD_CAT_ID><ELEMENT_SET_NO>999</ELEMENT_SET_NO><REV_AT_EPOCH>44705</REV_AT_EPOCH><BSTAR>.4935E-3</BSTAR><MEAN_MOTION_DOT>.129E-4</MEAN_MOTION_DOT><MEAN_MOTION_DDOT>0</MEAN_MOTION_DDOT></tleParameters></data></segment></body></omm>
<omm id="CCSDS_OMM_VERS" version="2.0">
<header><CREATION_DATE/><ORIGINATOR/></header><body><segment><metadata><OBJECT_NAME>ORBCOMM FM04</OBJECT_NAME><OBJECT_ID>1998-007C</OBJECT_ID><CENTER_NAME>EARTH</CENTER_NAME><REF_FRAME>TEME</REF_FRAME><TIME_SYSTEM>UTC</TIME_SYSTEM><MEAN_ELEMENT_THEORY>SGP4</MEAN_ELEMENT_THEORY></metadata><data><meanElements><EPOCH>2025-11-24T09:06:36.950112</EPOCH><MEAN_MOTION>14.35196680</MEAN_MOTION><ECCENTRICITY>.0041368</ECCENTRICITY><INCLINATION>107.9640</INCLINATION><RA_OF_ASC_NODE>108.0822</RA_OF_ASC_NODE><ARG_OF_PERICENTER>322.7552</ARG_OF_PERICENTER><MEAN_ANOMALY>37.0722</MEAN_ANOMALY></meanElements><tleParameters><EPHEMERIS_TYPE>0</EPHEMERIS_TYPE><CLASSIFICATION_TYPE>U</CLASSIFICATION_TYPE><NORAD_CAT_ID>25159</NORAD_CAT_ID><ELEMENT_SET_NO>999</ELEMENT_SET_NO><REV_AT_EPOCH>44720</REV_AT_EPOCH><BSTAR>.5208E-3</BSTAR><MEAN_MOTION_DOT>.1373E-4</MEAN_MOTION_DOT><MEAN_MOTION_DDOT>0</MEAN_MOTION_DDOT></tleParameters></data></segment></body></omm>
<omm id="CCSDS_OMM_VERS" version="2.0">
<header><CREATION_DATE/><ORIGINATOR/></header><body><segment><metadata><OBJECT_NAME>ORBCOMM FM17</OBJECT_NAME><OBJECT_ID>1998-046A</OBJECT_ID><CENTER_NAME>EARTH</CENTER_NAME><REF_FRAME>TEME</REF_FRAME><TIME_SYSTEM>UTC</TIME_SYSTEM><MEAN_ELEMENT_THEORY>SGP4</MEAN_ELEMENT_THEORY></metadata><data><meanElements><EPOCH>2025-11-24T10:11:05.497152</EPOCH><MEAN_MOTION>14.35482232</MEAN_MOTION><ECCENTRICITY>.0003505</ECCENTRICITY><INCLINATION>44.9938</INCLINATION><RA_OF_ASC_NODE>221.1739</RA_OF_ASC_NODE><ARG_OF_PERICENTER>314.8967</ARG_OF_PERICENTER><MEAN_ANOMALY>45.1595</MEAN_ANOMALY></meanElements><tleParameters><EPHEMERIS_TYPE>0</EPHEMERIS_TYPE><CLASSIFICATION_TYPE>U</CLASSIFICATION_TYPE><NORAD_CAT_ID>25413</NORAD_CAT_ID><ELEMENT_SET_NO>999</ELEMENT_SET_NO><REV_AT_EPOCH>42619</REV_AT_EPOCH><BSTAR>.36816E-3</BSTAR><MEAN_MOTION_DOT>.927E-5</MEAN_MOTION_DOT><MEAN_MOTION_DDOT>0</MEAN_MOTION_DDOT></tleParameters></data></segment></body></omm>
<omm id="CCSDS_OMM_VERS" version="2.0">
<header><CREATION_DATE/><ORIGINATOR/></header><body><segment><metadata><OBJECT_NAME>ORBCOMM FM18</OBJECT_NAME><OBJECT_ID>1998-046B</OBJECT_ID><CENTER_NAME>EARTH</CENTER_NAME><REF_FRAME>TEME</REF_FRAME><TIME_SYSTEM>UTC</TIME_SYSTEM><MEAN_ELEMENT_THEORY>SGP4</MEAN_ELEMENT_THEORY></metadata><data><meanElements><EPOCH>2025-11-24T17:57:00.150624</EPOCH><MEAN_MOTION>14.39069999</MEAN_MOTION><ECCENTRICITY>.0003846</ECCENTRICITY><INCLINATION>44.9912</INCLINATION><RA_OF_ASC_NODE>132.6824</RA_OF_ASC_NODE><ARG_OF_PERICENTER>20.8590</ARG_OF_PERICENTER><MEAN_ANOMALY>339.2415</MEAN_ANOMALY></meanElements><tleParameters><EPHEMERIS_TYPE>0</EPHEMERIS_TYPE><CLASSIFICATION_TYPE>U</CLASSIFICATION_TYPE><NORAD_CAT_ID>25414</NORAD_CAT_ID><ELEMENT_SET_NO>999</ELEMENT_SET_NO><REV_AT_EPOCH>42737</REV_AT_EPOCH><BSTAR>.46262E-3</BSTAR><MEAN_MOTION_DOT>.1301E-4</MEAN_MOTION_DOT><MEAN_MOTION_DDOT>0</MEAN_MOTION_DDOT></tleParameters></data></segment></body></omm>
<omm id="CCSDS_OMM_VERS" version="2.0">
<header><CREATION_DATE/><ORIGINATOR/></header><body><segment><metadata><OBJECT_NAME>ORBCOMM FM19</OBJECT_NAME><OBJECT_ID>1998-046C</OBJECT_ID><CENTER_NAME>EARTH</CENTER_NAME><REF_FRAME>TEME</REF_FRAME><TIME_SYSTEM>UTC</TIME_SYSTEM><MEAN_ELEMENT_THEORY>SGP4</MEAN_ELEMENT_THEORY></metadata><data><meanElements><EPOCH>2025-11-24T12:16:04.440000</EPOCH><MEAN_MOTION>14.38890240</MEAN_MOTION><ECCENTRICITY>.000261</ECCENTRICITY><INCLINATION>44.9920</INCLINATION><RA_OF_ASC_NODE>136.0528</RA_OF_ASC_NODE><ARG_OF_PERICENTER>16.0702</ARG_OF_PERICENTER><MEAN_ANOMALY>3.6487</MEAN_ANOMALY></meanElements><tleParameters><EPHEMERIS_TYPE>0</EPHEMERIS_TYPE><CLASSIFICATION_TYPE>U</CLASSIFICATION_TYPE><NORAD_CAT_ID>25415</NORAD_CAT_ID><ELEMENT_SET_NO>999</ELEMENT_SET_NO><REV_AT_EPOCH>42729</REV_AT_EPOCH><BSTAR>.47833E-3</BSTAR><MEAN_MOTION_DOT>.1344E-4</MEAN_MOTION_DOT><MEAN_MOTION_DDOT>0</MEAN_MOTION_DDOT></tleParameters></data></segment></body></omm>

</ndm>
